{
    "links": {
        "self": "http://www.neowsapp.com/rest/v1/neo/3248669?api_key=iIulBulltgU6a56xZRHN4H3l9WmuAYTsLGpBGhQ2"
    },
    "id": "3248669",
    "neo_reference_id": "3248669",
    "name": "(2004 NU7)",
    "designation": "2004 NU7",
    "nasa_jpl_url": "http://ssd.jpl.nasa.gov/sbdb.cgi?sstr=3248669",
    "absolute_magnitude_h": 24.4,
    "estimated_diameter": {
        "kilometers": {
            "estimated_diameter_min": 0.0350392641,
            "estimated_diameter_max": 0.0783501764
        },
        "meters": {
            "estimated_diameter_min": 35.0392641108,
            "estimated_diameter_max": 78.3501764334
        },
        "miles": {
            "estimated_diameter_min": 0.0217723826,
            "estimated_diameter_max": 0.0486845275
        },
        "feet": {
            "estimated_diameter_min": 114.9582192654,
            "estimated_diameter_max": 257.0543928497
        }
    },
    "is_potentially_hazardous_asteroid": false,
    "close_approach_data": [
        {
            "close_approach_date": "2004-07-04",
            "close_approach_date_full": "2004-Jul-04 10:46",
            "epoch_date_close_approach": 1088937960000,
            "relative_velocity": {
                "kilometers_per_second": "7.4964234079",
                "kilometers_per_hour": "26987.1242685244",
                "miles_per_hour": "16768.7495211839"
            },
            "miss_distance": {
                "astronomical": "0.0188893276",
                "lunar": "7.3479484364",
                "kilometers": "2825803.174692212",
                "miles": "1755872.6718560456"
            },
            "orbiting_body": "Earth"
        }
    ],
    "orbital_data": {
        "orbit_id": "10",
        "orbit_determination_date": "2017-04-06 09:12:33",
        "first_observation_date": "2004-07-14",
        "last_observation_date": "2004-07-21",
        "data_arc_in_days": 7,
        "observations_used": 22,
        "orbit_uncertainty": "8",
        "minimum_orbit_intersection": ".0137829",
        "jupiter_tisserand_invariant": "3.431",
        "epoch_osculation": "2453203.5",
        "eccentricity": ".5409876445491497",
        "semi_major_axis": "2.234598742722549",
        "inclination": ".8353385233272681",
        "ascending_node_longitude": "135.9229109742663",
        "orbital_period": "1220.106531449893",
        "perihelion_distance": "1.025708432384586",
        "perihelion_argument": "135.177634531665",
        "aphelion_distance": "3.443489053060513",
        "perihelion_time": "2453181.303148098780",
        "mean_anomaly": "6.549318832793549",
        "mean_motion": ".2950562026515833",
        "equinox": "J2000",
        "orbit_class": {
            "orbit_class_type": "AMO",
            "orbit_class_description": "Near-Earth asteroid orbits similar to that of 1221 Amor",
            "orbit_class_range": "1.017 AU < q (perihelion) < 1.3 AU"
        }
    },
    "is_sentry_object": false
}